[{"OBJECT_NAME":"ONEWEB-0137","OBJECT_ID":"2020-100AB","EPOCH":"2026-06-01T14:19:25.738752","MEAN_MOTION":13.12444262,"ECCENTRICITY":0.000194,"INCLINATION":87.8954,"RA_OF_ASC_NODE":353.7593,"ARG_OF_PERICENTER":89.8127,"MEAN_ANOMALY":270.3224,"EPHEMERIS_TYPE":0,"CLASSIFICATION_TYPE":"U","NORAD_CAT_ID":47283,"ELEMENT_SET_NO":999,"REV_AT_EPOCH":26252,"BSTAR":-0.0006748300000000001,"MEAN_MOTION_DOT":-2.3e-06,"MEAN_MOTION_DDOT":0.0},{"OBJECT_NAME":"ONEWEB-0138","OBJECT_ID":"2020-100AC","EPOCH":"2026-06-02T00:46:24.481056","MEAN_MOTION":13.12442058,"ECCENTRICITY":0.0001576,"INCLINATION":87.8951,"RA_OF_ASC_NODE":353.679,"ARG_OF_PERICENTER":91.4723,"MEAN_ANOMALY":268.6586,"EPHEMERIS_TYPE":0,"CLASSIFICATION_TYPE":"U","NORAD_CAT_ID":47284,"ELEMENT_SET_NO":999,"REV_AT_EPOCH":26266,"BSTAR":-0.00040153,"MEAN_MOTION_DOT":-1.32e-06,"MEAN_MOTION_DDOT":0.0},{"OBJECT_NAME":"ONEWEB-0139","OBJECT_ID":"2020-100AD","EPOCH":"2026-06-02T01:45:10.039104","MEAN_MOTION":13.1244525,"ECCENTRICITY":0.000179,"INCLINATION":87.8949,"RA_OF_ASC_NODE":353.6574,"ARG_OF_PERICENTER":89.4881,"MEAN_ANOMALY":270.6453,"EPHEMERIS_TYPE":0,"CLASSIFICATION_TYPE":"U","NORAD_CAT_ID":47285,"ELEMENT_SET_NO":999,"REV_AT_EPOCH":26274,"BSTAR":0.00062869,"MEAN_MOTION_DOT":2.39e-06,"MEAN_MOTION_DDOT":0.0},{"OBJECT_NAME":"ONEWEB-0140","OBJECT_ID":"2020-100AE","EPOCH":"2026-06-02T02:28:52.241088","MEAN_MOTION":13.12441894,"ECCENTRICITY":0.0001732,"INCLINATION":87.8951,"RA_OF_ASC_NODE":353.6418,"ARG_OF_PERICENTER":83.6434,"MEAN_ANOMALY":276.4892,"EPHEMERIS_TYPE":0,"CLASSIFICATION_TYPE":"U","NORAD_CAT_ID":47286,"ELEMENT_SET_NO":999,"REV_AT_EPOCH":26271,"BSTAR":0.00014642,"MEAN_MOTION_DOT":6.5e-07,"MEAN_MOTION_DDOT":0.0},{"OBJECT_NAME":"ONEWEB-0141","OBJECT_ID":"2020-100AF","EPOCH":"2026-06-02T01:44:46.161600","MEAN_MOTION":13.12444433,"ECCENTRICITY":0.0002075,"INCLINATION":87.8952,"RA_OF_ASC_NODE":353.6533,"ARG_OF_PERICENTER":93.0065,"MEAN_ANOMALY":267.1301,"EPHEMERIS_TYPE":0,"CLASSIFICATION_TYPE":"U","NORAD_CAT_ID":47287,"ELEMENT_SET_NO":999,"REV_AT_EPOCH":26269,"BSTAR":0.00079968,"MEAN_MOTION_DOT":3e-06,"MEAN_MOTION_DDOT":0.0},{"OBJECT_NAME":"ONEWEB-0142","OBJECT_ID":"2020-100AG","EPOCH":"2026-06-01T14:29:24.372384","MEAN_MOTION":13.12443229,"ECCENTRICITY":0.0001907,"INCLINATION":87.8945,"RA_OF_ASC_NODE":353.769,"ARG_OF_PERICENTER":101.3208,"MEAN_ANOMALY":258.8135,"EPHEMERIS_TYPE":0,"CLASSIFICATION_TYPE":"U","NORAD_CAT_ID":47288,"ELEMENT_SET_NO":999,"REV_AT_EPOCH":26262,"BSTAR":0.00012186,"MEAN_MOTION_DOT":5.7e-07,"MEAN_MOTION_DDOT":0.0},{"OBJECT_NAME":"ONEWEB-0143","OBJECT_ID":"2020-100AH","EPOCH":"2026-06-02T01:42:31.546944","MEAN_MOTION":13.12444336,"ECCENTRICITY":0.0001821,"INCLINATION":87.8951,"RA_OF_ASC_NODE":353.6739,"ARG_OF_PERICENTER":88.258,"MEAN_ANOMALY":271.8757,"EPHEMERIS_TYPE":0,"CLASSIFICATION_TYPE":"U","NORAD_CAT_ID":47289,"ELEMENT_SET_NO":999,"REV_AT_EPOCH":26266,"BSTAR":0.00064257,"MEAN_MOTION_DOT":2.44e-06,"MEAN_MOTION_DDOT":0.0},{"OBJECT_NAME":"ONEWEB-0144","OBJECT_ID":"2020-100AJ","EPOCH":"2026-06-02T02:50:49.089408","MEAN_MOTION":13.12443316,"ECCENTRICITY":0.0001597,"INCLINATION":87.8952,"RA_OF_ASC_NODE":353.6372,"ARG_OF_PERICENTER":94.435,"MEAN_ANOMALY":265.6961,"EPHEMERIS_TYPE":0,"CLASSIFICATION_TYPE":"U","NORAD_CAT_ID":47290,"ELEMENT_SET_NO":999,"REV_AT_EPOCH":26259,"BSTAR":-0.0006944399999999999,"MEAN_MOTION_DOT":-2.37e-06,"MEAN_MOTION_DDOT":0.0},{"OBJECT_NAME":"ONEWEB-0145","OBJECT_ID":"2020-100AK","EPOCH":"2026-06-02T02:09:21.826944","MEAN_MOTION":13.12442989,"ECCENTRICITY":0.0001735,"INCLINATION":87.8944,"RA_OF_ASC_NODE":353.673,"ARG_OF_PERICENTER":89.3688,"MEAN_ANOMALY":270.7639,"EPHEMERIS_TYPE":0,"CLASSIFICATION_TYPE":"U","NORAD_CAT_ID":47291,"ELEMENT_SET_NO":999,"REV_AT_EPOCH":26278,"BSTAR":0.0014107,"MEAN_MOTION_DOT":5.2e-06,"MEAN_MOTION_DDOT":0.0},{"OBJECT_NAME":"ONEWEB-0146","OBJECT_ID":"2020-100AL","EPOCH":"2026-06-02T02:04:29.325792","MEAN_MOTION":13.12443007,"ECCENTRICITY":0.0001921,"INCLINATION":87.8952,"RA_OF_ASC_NODE":353.6646,"ARG_OF_PERICENTER":81.9834,"MEAN_ANOMALY":278.1512,"EPHEMERIS_TYPE":0,"CLASSIFICATION_TYPE":"U","NORAD_CAT_ID":47292,"ELEMENT_SET_NO":999,"REV_AT_EPOCH":26269,"BSTAR":0.0012797,"MEAN_MOTION_DOT":4.73e-06,"MEAN_MOTION_DDOT":0.0},{"OBJECT_NAME":"ONEWEB-0147","OBJECT_ID":"2020-100AM","EPOCH":"2026-06-01T14:16:59.429856","MEAN_MOTION":13.12444247,"ECCENTRICITY":0.0001653,"INCLINATION":87.8955,"RA_OF_ASC_NODE":353.7438,"ARG_OF_PERICENTER":85.8988,"MEAN_ANOMALY":274.2329,"EPHEMERIS_TYPE":0,"CLASSIFICATION_TYPE":"U","NORAD_CAT_ID":47293,"ELEMENT_SET_NO":999,"REV_AT_EPOCH":26252,"BSTAR":-0.0007591200000000001,"MEAN_MOTION_DOT":-2.6e-06,"MEAN_MOTION_DDOT":0.0},{"OBJECT_NAME":"ONEWEB-0115","OBJECT_ID":"2021-025A","EPOCH":"2026-06-02T00:23:34.785312","MEAN_MOTION":13.13468484,"ECCENTRICITY":0.0001781,"INCLINATION":87.8947,"RA_OF_ASC_NODE":323.2443,"ARG_OF_PERICENTER":91.3537,"MEAN_ANOMALY":268.7796,"EPHEMERIS_TYPE":0,"CLASSIFICATION_TYPE":"U","NORAD_CAT_ID":48042,"ELEMENT_SET_NO":999,"REV_AT_EPOCH":25160,"BSTAR":0.00031118000000000004,"MEAN_MOTION_DOT":1.26e-06,"MEAN_MOTION_DDOT":0.0},{"OBJECT_NAME":"ONEWEB-0152","OBJECT_ID":"2021-025B","EPOCH":"2026-06-01T11:55:12.269856","MEAN_MOTION":13.13469257,"ECCENTRICITY":0.0001784,"INCLINATION":87.8947,"RA_OF_ASC_NODE":323.3445,"ARG_OF_PERICENTER":88.2478,"MEAN_ANOMALY":271.8856,"EPHEMERIS_TYPE":0,"CLASSIFICATION_TYPE":"U","NORAD_CAT_ID":48043,"ELEMENT_SET_NO":999,"REV_AT_EPOCH":25149,"BSTAR":-0.0009134799999999999,"MEAN_MOTION_DOT":-3.21e-06,"MEAN_MOTION_DDOT":0.0},{"OBJECT_NAME":"ONEWEB-0153","OBJECT_ID":"2021-025C","EPOCH":"2026-06-02T00:11:23.574336","MEAN_MOTION":13.13469203,"ECCENTRICITY":0.000178,"INCLINATION":87.8944,"RA_OF_ASC_NODE":323.2468,"ARG_OF_PERICENTER":95.0998,"MEAN_ANOMALY":265.0334,"EPHEMERIS_TYPE":0,"CLASSIFICATION_TYPE":"U","NORAD_CAT_ID":48044,"ELEMENT_SET_NO":999,"REV_AT_EPOCH":25155,"BSTAR":0.0007780899999999999,"MEAN_MOTION_DOT":2.97e-06,"MEAN_MOTION_DDOT":0.0},{"OBJECT_NAME":"ONEWEB-0154","OBJECT_ID":"2021-025D","EPOCH":"2026-06-02T00:06:30.686112","MEAN_MOTION":13.13468805,"ECCENTRICITY":0.0001703,"INCLINATION":87.8943,"RA_OF_ASC_NODE":323.2447,"ARG_OF_PERICENTER":92.5163,"MEAN_ANOMALY":267.6161,"EPHEMERIS_TYPE":0,"CLASSIFICATION_TYPE":"U","NORAD_CAT_ID":48045,"ELEMENT_SET_NO":999,"REV_AT_EPOCH":25151,"BSTAR":0.00084419,"MEAN_MOTION_DOT":3.21e-06,"MEAN_MOTION_DDOT":0.0},{"OBJECT_NAME":"ONEWEB-0116","OBJECT_ID":"2021-025E","EPOCH":"2026-06-01T10:24:59.210496","MEAN_MOTION":13.13470498,"ECCENTRICITY":0.0001771,"INCLINATION":87.895,"RA_OF_ASC_NODE":323.354,"ARG_OF_PERICENTER":88.5247,"MEAN_ANOMALY":271.6085,"EPHEMERIS_TYPE":0,"CLASSIFICATION_TYPE":"U","NORAD_CAT_ID":48046,"ELEMENT_SET_NO":999,"REV_AT_EPOCH":25158,"BSTAR":-0.0010526,"MEAN_MOTION_DOT":-3.72e-06,"MEAN_MOTION_DDOT":0.0}]