ONEWEB-0137             
1 47283U 20100AB  26152.59682568 -.00000230  00000+0 -67483-3 0  9999
2 47283  87.8954 353.7593 0001940  89.8127 270.3224 13.12444262262527
ONEWEB-0138             
1 47284U 20100AC  26153.03222779 -.00000132  00000+0 -40153-3 0  9990
2 47284  87.8951 353.6790 0001576  91.4723 268.6586 13.12442058262666
ONEWEB-0139             
1 47285U 20100AD  26153.07303286  .00000239  00000+0  62869-3 0  9992
2 47285  87.8949 353.6574 0001790  89.4881 270.6453 13.12445250262746
ONEWEB-0140             
1 47286U 20100AE  26153.10338242  .00000065  00000+0  14642-3 0  9990
2 47286  87.8951 353.6418 0001732  83.6434 276.4892 13.12441894262711
ONEWEB-0141             
1 47287U 20100AF  26153.07275650  .00000300  00000+0  79968-3 0  9994
2 47287  87.8952 353.6533 0002075  93.0065 267.1301 13.12444433262698
ONEWEB-0142             
1 47288U 20100AG  26152.60375431  .00000057  00000+0  12186-3 0  9999
2 47288  87.8945 353.7690 0001907 101.3208 258.8135 13.12443229262628
ONEWEB-0143             
1 47289U 20100AH  26153.07119846  .00000244  00000+0  64257-3 0  9992
2 47289  87.8951 353.6739 0001821  88.2580 271.8757 13.12444336262669
ONEWEB-0144             
1 47290U 20100AJ  26153.11862372 -.00000237  00000+0 -69444-3 0  9995
2 47290  87.8952 353.6372 0001597  94.4350 265.6961 13.12443316262596
ONEWEB-0145             
1 47291U 20100AK  26153.08983596  .00000520  00000+0  14107-2 0  9992
2 47291  87.8944 353.6730 0001735  89.3688 270.7639 13.12442989262782
ONEWEB-0146             
1 47292U 20100AL  26153.08645053  .00000473  00000+0  12797-2 0  9996
2 47292  87.8952 353.6646 0001921  81.9834 278.1512 13.12443007262690
ONEWEB-0147             
1 47293U 20100AM  26152.59513229 -.00000260  00000+0 -75912-3 0  9996
2 47293  87.8955 353.7438 0001653  85.8988 274.2329 13.12444247262521
ONEWEB-0115             
1 48042U 21025A   26153.01637483  .00000126  00000+0  31118-3 0  9992
2 48042  87.8947 323.2443 0001781  91.3537 268.7796 13.13468484251600
ONEWEB-0152             
1 48043U 21025B   26152.49666979 -.00000321  00000+0 -91348-3 0  9996
2 48043  87.8947 323.3445 0001784  88.2478 271.8856 13.13469257251494
ONEWEB-0153             
1 48044U 21025C   26153.00791174  .00000297  00000+0  77809-3 0  9997
2 48044  87.8944 323.2468 0001780  95.0998 265.0334 13.13469203251559
ONEWEB-0154             
1 48045U 21025D   26153.00452183  .00000321  00000+0  84419-3 0  9995
2 48045  87.8943 323.2447 0001703  92.5163 267.6161 13.13468805251516
ONEWEB-0116             
1 48046U 21025E   26152.43401864 -.00000372  00000+0 -10526-2 0  9997
2 48046  87.8950 323.3540 0001771  88.5247 271.6085 13.13470498251581
